export const orbitalData = {
    Sun: { color: 0xffff00, size: 0.02 },
    Mercury: {
        color: 0xffc0cb, size: 0.02,
        semi_major_axis: 0.387, eccentricity: 0.2056, inclination: 7.0049,
        perihelion_argument: 77.456, ascending_node_longitude: 48.331,
        orbital_period: 87.969, mean_anomaly: 174.796,
        orbit_determination_date: "2023-03-01T00:00:00Z"
    },
    Venus: {
        color: 0xffd700, size: 0.04,
        semi_major_axis: 0.723, eccentricity: 0.0068, inclination: 3.3947,
        perihelion_argument: 131.532, ascending_node_longitude: 76.680,
        orbital_period: 224.700, mean_anomaly: 50.115,
        orbit_determination_date: "2023-03-01T00:00:00Z"
    },
    Earth: {
        color: 0x00ff00, size: 0.05,
        semi_major_axis: 1.000, eccentricity: 0.0167, inclination: 0.0000,
        perihelion_argument: 102.937, ascending_node_longitude: 10,
        orbital_period: 365.256, mean_anomaly: 358.617,
        orbit_determination_date: "2025-03-01T00:00:00Z"
    },
    Mars: {
        color: 0xff0000, size: 0.03,
        semi_major_axis: 1.524, eccentricity: 0.0934, inclination: 1.8506,
        perihelion_argument: 336.040, ascending_node_longitude: 49.578,
        orbital_period: 686.980, mean_anomaly: 19.356,
        orbit_determination_date: "2023-03-01T00:00:00Z"
    },
    Jupiter: {
        color: 0xffa500, size: 0.1,
        semi_major_axis: 5.203, eccentricity: 0.0485, inclination: 1.3030,
        perihelion_argument: 14.753, ascending_node_longitude: 100.492,
        orbital_period: 4332.589, mean_anomaly: 20.020,
        orbit_determination_date: "2023-03-01T00:00:00Z"
    },
    Saturn: {
        color: 0xffff00, size: 0.09,
        semi_major_axis: 9.537, eccentricity: 0.0541, inclination: 2.4845,
        perihelion_argument: 92.598, ascending_node_longitude: 113.662,
        orbital_period: 10759.22, mean_anomaly: 317.020,
        orbit_determination_date: "2023-03-01T00:00:00Z"
    },
    Uranus: {
        color: 0x00ffff, size: 0.08,
        semi_major_axis: 19.191, eccentricity: 0.0472, inclination: 0.7699,
        perihelion_argument: 170.964, ascending_node_longitude: 74.016,
        orbital_period: 30685.4, mean_anomaly: 142.238,
        orbit_determination_date: "2023-03-01T00:00:00Z"
    },
    Neptune: {
        color: 0x0000ff, size: 0.08,
        semi_major_axis: 30.07, eccentricity: 0.0086, inclination: 1.7692,
        perihelion_argument: 44.971, ascending_node_longitude: 131.784,
        orbital_period: 60189.0, mean_anomaly: 256.228,
        orbit_determination_date: "2023-03-01T00:00:00Z"
    }
    // TestAsteroid: {
    //     color: 0xff00ff, size: 0.08,
    //     semi_major_axis: 1.926281479504115, eccentricity: .6539754427868308, inclination: 9.553577274325484,
    //     perihelion_argument: 89.73368142743361, ascending_node_longitude: 23.96626072674418,
    //     orbital_period: 976.5130476604551, mean_anomaly: 141.1881401390145,
    //     orbit_determination_date: "2023-06-10 06:23:19"
    // }
};




// {
//     "semi_major_axis": "1.926281479504115",
//     "eccentricity": ".6539754427868308",
//     "inclination": "9.553577274325484",
//     "perihelion_argument": "89.73368142743361",
//     "ascending_node_longitude": "23.96626072674418",
//     "orbit_determination_date": "2023-06-10 06:23:19",
//     "orbital_period": "976.5130476604551",
//     "mean_anomaly": "141.1881401390145"
//   }